H1 CPF  1  HTS 2022  1 30 12  5301 larets           NONE
H2  0304206 5557    27944 2022 01 30  0  0  0 2022 02 04  0  0  0   180 1 1  0 0 0
H5  0.0560 
H9 
10 0 59610  59400.00000  0   -1495106.902    2296446.589    6497261.728
10 0 59610  59580.00000  0    -404884.923    1563162.871    6865064.439
10 0 59610  59760.00000  0     679692.029     744493.627    6981454.641
10 0 59610  59940.00000  0    1717370.987    -129084.835    6842374.919
10 0 59610  60120.00000  0    2669486.755   -1024099.534    6453049.299
10 0 59610  60300.00000  0    3501395.277   -1905361.745    5827784.260
10 0 59610  60480.00000  0    4183737.141   -2737346.293    4989459.348
10 0 59610  60660.00000  0    4693486.079   -3485621.828    3968716.348
10 0 59610  60840.00000  0    5014746.212   -4118280.944    2802866.717
10 0 59610  61020.00000  0    5139264.722   -4607307.399    1534539.427
10 0 59610  61200.00000  0    5066629.414   -4929813.978     210114.951
10 0 59610  61380.00000  0    4804141.685   -5069091.885   -1121992.351
10 0 59610  61560.00000  0    4366371.495   -5015415.480   -2413135.640
10 0 59610  61740.00000  0    3774414.980   -4766559.473   -3616241.551
10 0 59610  61920.00000  0    3054895.989   -4328005.267   -4687539.301
10 0 59610  62100.00000  0    2238766.864   -3712830.688   -5588142.757
10 0 59610  62280.00000  0    1359971.118   -2941294.370   -6285422.532
10 0 59610  62460.00000  0     454036.875   -2040147.218   -6754133.539
10 0 59610  62640.00000  0    -443346.292   -1041694.399   -6977277.118
10 0 59610  62820.00000  0   -1297709.517      17356.772   -6946674.897
10 0 59610  63000.00000  0   -2077103.122    1097220.693   -6663254.054
10 0 59610  63180.00000  0   -2753275.460    2156494.331   -6137040.538
10 0 59610  63360.00000  0   -3302696.191    3153717.119   -5386859.411
10 0 59610  63540.00000  0   -3707397.584    4048988.307   -4439737.783
10 0 59610  63720.00000  0   -3955600.615    4805585.293   -3330001.947
10 0 59610  63900.00000  0   -4042087.819    5391510.667   -2098082.757
10 0 59610  64080.00000  0   -3968306.644    5780897.678    -789065.562
10 0 59610  64260.00000  0   -3742190.468    5955203.382     548977.720
10 0 59610  64440.00000  0   -3377695.072    5904110.778    1866807.682
10 0 59610  64620.00000  0   -2894068.762    5626087.151    3115905.909
10 0 59610  64800.00000  0   -2314889.417    5128555.579    4250333.658
10 0 59610  64980.00000  0   -1666932.832    4427680.428    5228465.750
10 0 59610  65160.00000  0    -978934.763    3547787.280    6014533.604
10 0 59610  65340.00000  0    -280310.007    2520449.146    6579916.422
10 0 59610  65520.00000  0     400106.055    1383291.688    6904140.216
10 0 59610  65700.00000  0    1035242.762     178574.599    6975569.018
10 0 59610  65880.00000  0    1600862.912   -1048396.787    6791778.180
10 0 59610  66060.00000  0    2076478.815   -2250976.652    6359614.047
10 0 59610  66240.00000  0    2446089.352   -3382949.389    5694939.324
10 0 59610  66420.00000  0    2698715.687   -4400308.217    4822068.251
10 0 59610  66600.00000  0    2828717.794   -5262977.319    3772903.527
10 0 59610  66780.00000  0    2835884.374   -5936415.501    2585794.498
10 0 59610  66960.00000  0    2725287.456   -6393031.942    1304144.767
10 0 59610  67140.00000  0    2506907.432   -6613342.071     -25181.935
10 0 59610  67320.00000  0    2195050.153   -6586813.146   -1353595.953
10 0 59610  67500.00000  0    1807578.040   -6312348.639   -2632594.276
10 0 59610  67680.00000  0    1364993.540   -5798381.910   -3815561.369
10 0 59610  67860.00000  0     889429.004   -5062575.624   -4859478.032
10 0 59610  68040.00000  0     403600.639   -4131158.370   -5726466.590
10 0 59610  68220.00000  0     -70227.221   -3037939.561   -6385124.059
10 0 59610  68400.00000  0    -511220.636   -1823049.044   -6811604.462
10 0 59610  68580.00000  0    -900857.580    -531457.424   -6990427.541
10 0 59610  68760.00000  0   -1223680.849     788670.165   -6915004.243
10 0 59610  68940.00000  0   -1467899.311    2087735.034   -6587870.749
10 0 59610  69120.00000  0   -1625819.222    3316531.128   -6020631.502
10 0 59610  69300.00000  0   -1694093.179    4428091.469   -5233609.036
10 0 59610  69480.00000  0   -1673777.028    5379498.982   -4255191.116
10 0 59610  69660.00000  0   -1570189.901    6133594.138   -3120874.738
10 0 59610  69840.00000  0   -1392576.272    6660500.035   -1872023.163
10 0 59610  70020.00000  0   -1153582.202    6938893.311    -554371.234
10 0 59610  70200.00000  0    -868567.251    6956947.440     783672.999
10 0 59610  70380.00000  0    -554783.597    6712891.182    2092865.073
10 0 59610  70560.00000  0    -230466.738    6215127.868    3325015.233
10 0 59610  70740.00000  0      86109.842    5481913.816    4434823.951
10 0 59610  70920.00000  0     377564.581    4540630.648    5381591.821
10 0 59610  71100.00000  0     628277.392    3426673.261    6130724.428
10 0 59610  71280.00000  0     825152.748    2182040.785    6654969.456
10 0 59610  71460.00000  0     958240.521     853691.601    6935365.787
10 0 59610  71640.00000  0    1021192.728    -508264.980    6961877.986
10 0 59610  71820.00000  0    1011540.802   -1852468.031    6733715.568
10 0 59610  72000.00000  0     930784.451   -3128240.918    6259338.358
10 0 59610  72180.00000  0     784289.857   -4287501.478    5556143.402
10 0 59610  72360.00000  0     581003.752   -5286575.595    4649841.078
10 0 59610  72540.00000  0     332998.646   -6087858.914    3573547.217
10 0 59610  72720.00000  0      54861.513   -6661273.241    2366599.269
10 0 59610  72900.00000  0    -237048.927   -6985440.821    1073126.119
10 0 59610  73080.00000  0    -525440.351   -7048523.000    -259574.333
10 0 59610  73260.00000  0    -792979.573   -6848675.703   -1582796.948
10 0 59610  73440.00000  0   -1023189.810   -6394087.430   -2848244.180
10 0 59610  73620.00000  0   -1201307.576   -5702612.179   -4009811.309
10 0 59610  73800.00000  0   -1315057.805   -4801017.114   -5025272.524
10 0 59610  73980.00000  0   -1355307.449   -3723887.565   -5857794.048
10 0 59610  74160.00000  0   -1316568.874   -2512255.604   -6477225.337
10 0 59610  74340.00000  0   -1197332.933   -1212013.623   -6861136.319
10 0 59610  74520.00000  0   -1000221.503     127820.838   -6995576.095
10 0 59610  74700.00000  0    -731954.404    1456925.969   -6875545.904
10 0 59610  74880.00000  0    -403129.664    2725526.839   -6505183.254
10 0 59610  75060.00000  0     -27824.484    3886229.505   -5897656.436
10 0 59610  75240.00000  0     376977.652    4895790.491   -5074760.890
10 0 59610  75420.00000  0     792115.679    5716759.153   -4066211.657
10 0 59610  75600.00000  0    1197110.670    6318933.685   -2908637.017
10 0 59610  75780.00000  0    1571123.413    6680559.979   -1644288.791
10 0 59610  75960.00000  0    1893966.516    6789210.401    -319504.059
10 0 59610  76140.00000  0    2147119.426    6642282.297    1017029.256
10 0 59610  76320.00000  0    2314688.169    6247078.589    2316122.405
10 0 59610  76500.00000  0    2384258.304    5620466.389    3529963.830
10 0 59610  76680.00000  0    2347595.459    4788131.523    4613941.014
10 0 59610  76860.00000  0    2201152.760    3783464.808    5528324.523
10 0 59610  77040.00000  0    1946358.642    2646141.482    6239727.409
10 0 59610  77220.00000  0    1589682.339    1420490.524    6722294.030
10 0 59610  77400.00000  0    1142474.377     153719.595    6958595.223
10 0 59610  77580.00000  0     620591.763   -1105923.823    6940205.320
10 0 59610  77760.00000  0      43823.923   -2310991.274    6667968.918
10 0 59610  77940.00000  0    -564864.521   -3416618.359    6151947.130
10 0 59610  78120.00000  0   -1180243.305   -4382190.804    5411043.821
10 0 59610  78300.00000  0   -1775845.335   -5172836.914    4472337.067
10 0 59610  78480.00000  0   -2325090.566   -5760714.129    3370127.447
10 0 59610  78660.00000  0   -2802456.534   -6126028.903    2144703.817
10 0 59610  78840.00000  0   -3184637.760   -6257733.275     840872.255
10 0 59610  79020.00000  0   -3451638.592   -6153871.189    -493696.380
10 0 59610  79200.00000  0   -3587745.323   -5821554.624   -1810237.665
10 0 59610  79380.00000  0   -3582327.685   -5276566.369   -3060708.944
10 0 59610  79560.00000  0   -3430427.593   -4542608.994   -4199566.801
10 0 59610  79740.00000  0   -3133104.977   -3650245.324   -5185426.231
10 0 59610  79920.00000  0   -2697531.288   -2635594.393   -5982537.467
10 0 59610  80100.00000  0   -2136832.962   -1538847.899   -6562035.776
10 0 59610  80280.00000  0   -1469691.836    -402673.018   -6902932.025
10 0 59610  80460.00000  0    -719722.272     729433.506   -6992819.233
10 0 59610  80640.00000  0      85349.843    1814779.094   -6828294.133
10 0 59610  80820.00000  0     914685.628    2813053.723   -6415093.490
10 0 59610  81000.00000  0    1735487.425    3687813.554   -5767939.471
10 0 59610  81180.00000  0    2514276.472    4407822.782   -4910079.417
10 0 59610  81360.00000  0    3218250.327    4948206.434   -3872525.329
10 0 59610  81540.00000  0    3816671.444    5291371.338   -2692995.858
10 0 59610  81720.00000  0    4282228.349    5427645.031   -1414579.576
10 0 59610  81900.00000  0    4592299.099    5355592.327     -84157.548
10 0 59610  82080.00000  0    4730046.768    5081984.205    1249356.326
10 0 59610  82260.00000  0    4685280.746    4621410.330    2536875.505
10 0 59610  82440.00000  0    4455040.566    3995560.284    3731017.528
10 0 59610  82620.00000  0    4043861.928    3232200.804    4787911.084
10 0 59610  82800.00000  0    3463716.556    2363913.117    5668839.617
10 0 59610  82980.00000  0    2733631.434    1426661.383    6341661.069
10 0 59610  83160.00000  0    1879016.180     458267.367    6781945.645
10 0 59610  83340.00000  0     930738.271    -503133.788    6973812.292
10 0 59610  83520.00000  0     -76018.953   -1420596.756    6910456.938
10 0 59610  83700.00000  0   -1103075.312   -2259783.437    6594359.575
99
